STARLINK-4717           
1 53705U 22107F   25039.77903199 -.00001756  00000+0 -92335-4 0  9992
2 53705  53.2161 212.6676 0001081  76.8482 283.2631 15.08828276134634
STARLINK-4716           
1 53706U 22107G   25039.76428664  .00000159  00000+0  28084-4 0  9995
2 53706  53.2162 212.5791 0001304  89.6809 270.4332 15.08842107134631
STARLINK-4667           
1 53707U 22107H   25039.62398369  .00001671  00000+0  12303-3 0  9995
2 53707  53.2169 198.1634 0001251  90.5149 269.5986 15.08838303135574
STARLINK-4694           
1 53708U 22107J   25039.74172564  .00000430  00000+0  45104-4 0  9994
2 53708  53.2180 197.4885 0001279  97.2752 262.8386 15.08838484134841
STARLINK-4685           
1 53709U 22107K   25039.79506579 -.00000304  00000+0 -10220-5 0  9991
2 53709  53.2172 217.0779 0001402  94.1892 265.9260 15.08836024134576
STARLINK-4627           
1 53711U 22107M   25039.20997117  .00002621  00000+0  18272-3 0  9997
2 53711  53.2164 219.8140 0001048  97.9089 262.2022 15.08832219134924
STARLINK-4683           
1 53712U 22107N   25039.51537033  .00000363  00000+0  40884-4 0  9995
2 53712  53.2164 218.1826 0001178  89.4672 270.6455 15.08835469134996
STARLINK-4698           
1 53713U 22107P   25039.74045927  .00072713  00000+0  21144-2 0  9991
2 53713  53.2073 205.5984 0001764 272.1036  87.9766 15.34815428134735
STARLINK-4686           
1 53715U 22107R   25039.53516474  .00000829  00000+0  70189-4 0  9994
2 53715  53.2160 223.2647 0001241  81.6282 278.4851 15.08838937134916
STARLINK-4699           
1 53716U 22107S   25039.53148410  .00000432  00000+0  45234-4 0  9999
2 53716  53.2167 223.2420 0001310  94.5401 265.5741 15.08835260134906
STARLINK-4695           
1 53718U 22107U   25039.72019015  .00000450  00000+0  46393-4 0  9997
2 53718  53.2173 222.9811 0001282  94.9860 265.1278 15.08835835134477
STARLINK-4644           
1 53719U 22107V   25039.72191602 -.00001673  00000+0 -87008-4 0  9999
2 53719  53.2171 192.3336 0001900 108.4599 251.6600 15.08842491134896
STARLINK-4642           
1 53720U 22107W   25039.53885561  .00000130  00000+0  26294-4 0  9999
2 53720  53.2173 223.2906 0002054 101.6235 258.4988 15.08839742134912
STARLINK-4707           
1 53721U 22107X   25039.21503284  .00002649  00000+0  18441-3 0  9995
2 53721  53.2170 224.8211 0001451  95.9324 264.1833 15.08845019134861
STARLINK-4700           
1 53722U 22107Y   25039.81855499  .00001024  00000+0  82428-4 0  9993
2 53722  53.2168 222.1882 0001304  85.7300 274.3841 15.08836881134490
STARLINK-4705           
1 53723U 22107Z   25039.79275748 -.00000146  00000+0  89251-5 0  9991
2 53723  53.2169 222.0360 0001336  82.2271 277.8873 15.08837637134499
STARLINK-4663           
1 53724U 22107AA  25039.54253697  .00000301  00000+0  36980-4 0  9996
2 53724  53.2167 223.3137 0001402  95.5989 264.5163 15.08838503134455
STARLINK-4697           
1 53726U 22107AC  25039.81488695  .00008563  00000+0  55610-3 0  9994
2 53726  53.2179 222.1704 0001642  94.5195 265.5985 15.08797663134499
STARLINK-4701           
1 53727U 22107AD  25039.22976314  .00000208  00000+0  31160-4 0  9993
2 53727  53.2175 224.9140 0001488  86.2033 273.9129 15.08836419135001
STARLINK-4640           
1 53728U 22107AE  25039.82223519 -.00003540  00000+0 -20442-3 0  9996
2 53728  53.2161 222.2147 0001179  86.4808 273.6319 15.08848852134498
STARLINK-4651           
1 53729U 22107AF  25039.77072895  .00000597  00000+0  55623-4 0  9997
2 53729  53.2164 222.6031 0001430  87.9147 272.2009 15.08843836134487
STARLINK-4641           
1 53730U 22107AG  25039.23344959  .00000699  00000+0  61991-4 0  9991
2 53730  53.2154 224.9354 0001346 114.2343 245.8790 15.08851496135002
STARLINK-4636           
1 53731U 22107AH  25039.77442282  .00002085  00000+0  14902-3 0  9999
2 53731  53.2162 222.6256 0001404  83.4722 276.6430 15.08844234134487
STARLINK-4661           
1 53732U 22107AJ  25039.50305320 -.00001341  00000+0 -66220-4 0  9999
2 53732  53.2159 223.7750 0001313  93.7615 266.3527 15.08831944135049
STARLINK-4574           
1 53733U 22107AK  25039.51683039 -.00000158  00000+0  81419-5 0  9999
2 53733  53.2153 223.8591 0001628  97.5999 262.5178 15.08842808135078
STARLINK-4616           
1 53734U 22107AL  25039.50209164  .00000290  00000+0  36283-4 0  9996
2 53734  53.2170 223.7721 0001436  87.1305 272.9852 15.08841578135072
STARLINK-4618           
1 53735U 22107AM  25039.81026121  .00000077  00000+0  22909-4 0  9994
2 53735  53.2164 232.1262 0001419  94.3079 265.8075 15.08836842134355
STARLINK-4652           
1 53736U 22107AN  25039.51314960  .00003365  00000+0  22948-3 0  9998
2 53736  53.2157 223.8363 0000847  57.9517 302.1557 15.08831008135072
STARLINK-4646           
1 53737U 22107AP  25039.81394435 -.00000085  00000+0  12744-4 0  9998
2 53737  53.2164 232.1492 0001431  88.4098 271.7058 15.08839123134353
STARLINK-4662           
1 53738U 22107AQ  25039.80657203  .00000216  00000+0  31671-4 0  9998
2 53738  53.2162 232.1019 0001408  90.0223 270.0930 15.08843204134356
