OBJECT_NAME,OBJECT_ID,EPOCH,MEAN_MOTION,ECCENTRICITY,INCLINATION,RA_OF_ASC_NODE,ARG_OF_PERICENTER,MEAN_ANOMALY,EPHEMERIS_TYPE,CLASSIFICATION_TYPE,NORAD_CAT_ID,ELEMENT_SET_NO,REV_AT_EPOCH,BSTAR,MEAN_MOTION_DOT,MEAN_MOTION_DDOT
STARLINK-4717,2022-107F,2025-02-08T18:41:48.363936,15.08828276,.0001081,53.2161,212.6676,76.8482,283.2631,0,U,53705,999,13463,-.92335E-4,-.1756E-4,0
STARLINK-4716,2022-107G,2025-02-08T18:20:34.365696,15.08842107,.0001304,53.2162,212.5791,89.6809,270.4332,0,U,53706,999,13463,.28084E-4,.159E-5,0
STARLINK-4667,2022-107H,2025-02-08T14:58:32.190816,15.08838303,.0001251,53.2169,198.1634,90.5149,269.5986,0,U,53707,999,13557,.12303E-3,.1671E-4,0
STARLINK-4694,2022-107J,2025-02-08T17:48:05.095296,15.08838484,.0001279,53.2180,197.4885,97.2752,262.8386,0,U,53708,999,13484,.45104E-4,.43E-5,0
STARLINK-4685,2022-107K,2025-02-08T19:04:53.684256,15.08836024,.0001402,53.2172,217.0779,94.1892,265.9260,0,U,53709,999,13457,-.1022E-5,-.304E-5,0
STARLINK-4627,2022-107M,2025-02-08T05:02:21.509088,15.08832219,.0001048,53.2164,219.8140,97.9089,262.2022,0,U,53711,999,13492,.18272E-3,.2621E-4,0
STARLINK-4683,2022-107N,2025-02-08T12:22:07.996512,15.08835469,.0001178,53.2164,218.1826,89.4672,270.6455,0,U,53712,999,13499,.40884E-4,.363E-5,0
STARLINK-4698,2022-107P,2025-02-08T17:46:15.680928,15.34815428,.0001764,53.2073,205.5984,272.1036,87.9766,0,U,53713,999,13473,.21144E-2,.72713E-3,0
STARLINK-4686,2022-107R,2025-02-08T12:50:38.233536,15.08838937,.0001241,53.2160,223.2647,81.6282,278.4851,0,U,53715,999,13491,.70189E-4,.829E-5,0
STARLINK-4699,2022-107S,2025-02-08T12:45:20.226240,15.08835260,.000131,53.2167,223.2420,94.5401,265.5741,0,U,53716,999,13490,.45234E-4,.432E-5,0
STARLINK-4695,2022-107U,2025-02-08T17:17:04.428960,15.08835835,.0001282,53.2173,222.9811,94.9860,265.1278,0,U,53718,999,13447,.46393E-4,.45E-5,0
STARLINK-4644,2022-107V,2025-02-08T17:19:33.544128,15.08842491,.00019,53.2171,192.3336,108.4599,251.6600,0,U,53719,999,13489,-.87008E-4,-.1673E-4,0
STARLINK-4642,2022-107W,2025-02-08T12:55:57.124704,15.08839742,.0002054,53.2173,223.2906,101.6235,258.4988,0,U,53720,999,13491,.26294E-4,.13E-5,0
STARLINK-4707,2022-107X,2025-02-08T05:09:38.837376,15.08845019,.0001451,53.2170,224.8211,95.9324,264.1833,0,U,53721,999,13486,.18441E-3,.2649E-4,0
STARLINK-4700,2022-107Y,2025-02-08T19:38:43.151136,15.08836881,.0001304,53.2168,222.1882,85.7300,274.3841,0,U,53722,999,13449,.82428E-4,.1024E-4,0
STARLINK-4705,2022-107Z,2025-02-08T19:01:34.246272,15.08837637,.0001336,53.2169,222.0360,82.2271,277.8873,0,U,53723,999,13449,.89251E-5,-.146E-5,0
STARLINK-4663,2022-107AA,2025-02-08T13:01:15.194208,15.08838503,.0001402,53.2167,223.3137,95.5989,264.5163,0,U,53724,999,13445,.3698E-4,.301E-5,0
STARLINK-4697,2022-107AC,2025-02-08T19:33:26.232480,15.08797663,.0001642,53.2179,222.1704,94.5195,265.5985,0,U,53726,999,13449,.5561E-3,.8563E-4,0
STARLINK-4701,2022-107AD,2025-02-08T05:30:51.535296,15.08836419,.0001488,53.2175,224.9140,86.2033,273.9129,0,U,53727,999,13500,.3116E-4,.208E-5,0
STARLINK-4640,2022-107AE,2025-02-08T19:44:01.120416,15.08848852,.0001179,53.2161,222.2147,86.4808,273.6319,0,U,53728,999,13449,-.20442E-3,-.354E-4,0
STARLINK-4651,2022-107AF,2025-02-08T18:29:50.981280,15.08843836,.000143,53.2164,222.6031,87.9147,272.2009,0,U,53729,999,13448,.55623E-4,.597E-5,0
STARLINK-4641,2022-107AG,2025-02-08T05:36:10.044576,15.08851496,.0001346,53.2154,224.9354,114.2343,245.8790,0,U,53730,999,13500,.61991E-4,.699E-5,0
STARLINK-4636,2022-107AH,2025-02-08T18:35:10.131648,15.08844234,.0001404,53.2162,222.6256,83.4722,276.6430,0,U,53731,999,13448,.14902E-3,.2085E-4,0
STARLINK-4661,2022-107AJ,2025-02-08T12:04:23.796480,15.08831944,.0001313,53.2159,223.7750,93.7615,266.3527,0,U,53732,999,13504,-.6622E-4,-.1341E-4,0
STARLINK-4574,2022-107AK,2025-02-08T12:24:14.145696,15.08842808,.0001628,53.2153,223.8591,97.5999,262.5178,0,U,53733,999,13507,.81419E-5,-.158E-5,0
STARLINK-4616,2022-107AL,2025-02-08T12:03:00.717696,15.08841578,.0001436,53.2170,223.7721,87.1305,272.9852,0,U,53734,999,13507,.36283E-4,.29E-5,0
STARLINK-4618,2022-107AM,2025-02-08T19:26:46.568544,15.08836842,.0001419,53.2164,232.1262,94.3079,265.8075,0,U,53735,999,13435,.22909E-4,.77E-6,0
STARLINK-4652,2022-107AN,2025-02-08T12:18:56.125440,15.08831008,.0000847,53.2157,223.8363,57.9517,302.1557,0,U,53736,999,13507,.22948E-3,.3365E-4,0
STARLINK-4646,2022-107AP,2025-02-08T19:32:04.791840,15.08839123,.0001431,53.2164,232.1492,88.4098,271.7058,0,U,53737,999,13435,.12744E-4,-.85E-6,0
STARLINK-4662,2022-107AQ,2025-02-08T19:21:27.823392,15.08843204,.0001408,53.2162,232.1019,90.0223,270.0930,0,U,53738,999,13435,.31671E-4,.216E-5,0
